{
    "links": {
        "self": "http://www.neowsapp.com/rest/v1/neo/3840796?api_key=iIulBulltgU6a56xZRHN4H3l9WmuAYTsLGpBGhQ2"
    },
    "id": "3840796",
    "neo_reference_id": "3840796",
    "name": "(2019 GR1)",
    "designation": "2019 GR1",
    "nasa_jpl_url": "http://ssd.jpl.nasa.gov/sbdb.cgi?sstr=3840796",
    "absolute_magnitude_h": 23.8,
    "estimated_diameter": {
        "kilometers": {
            "estimated_diameter_min": 0.046190746,
            "estimated_diameter_max": 0.1032856481
        },
        "meters": {
            "estimated_diameter_min": 46.1907460282,
            "estimated_diameter_max": 103.2856480504
        },
        "miles": {
            "estimated_diameter_min": 0.0287015901,
            "estimated_diameter_max": 0.0641787064
        },
        "feet": {
            "estimated_diameter_min": 151.544447199,
            "estimated_diameter_max": 338.8636855496
        }
    },
    "is_potentially_hazardous_asteroid": false,
    "close_approach_data": [
        {
            "close_approach_date": "1997-04-15",
            "close_approach_date_full": "1997-Apr-15 04:27",
            "epoch_date_close_approach": 861078420000,
            "relative_velocity": {
                "kilometers_per_second": "5.5349216645",
                "kilometers_per_hour": "19925.7179922833",
                "miles_per_hour": "12381.0662713718"
            },
            "miss_distance": {
                "astronomical": "0.1903434157",
                "lunar": "74.0435887073",
                "kilometers": "28474969.557244559",
                "miles": "17693525.6231865542"
            },
            "orbiting_body": "Earth"
        },
        {
            "close_approach_date": "2014-07-04",
            "close_approach_date_full": "2014-Jul-04 12:49",
            "epoch_date_close_approach": 1404478140000,
            "relative_velocity": {
                "kilometers_per_second": "2.6222326703",
                "kilometers_per_hour": "9440.0376131923",
                "miles_per_hour": "5865.6722602638"
            },
            "miss_distance": {
                "astronomical": "0.3940142399",
                "lunar": "153.2715393211",
                "kilometers": "58943691.038709013",
                "miles": "36625911.2453818594"
            },
            "orbiting_body": "Earth"
        },
        {
            "close_approach_date": "2019-04-22",
            "close_approach_date_full": "2019-Apr-22 09:44",
            "epoch_date_close_approach": 1555926240000,
            "relative_velocity": {
                "kilometers_per_second": "5.5592493108",
                "kilometers_per_hour": "20013.2975188447",
                "miles_per_hour": "12435.4847833066"
            },
            "miss_distance": {
                "astronomical": "0.1807653417",
                "lunar": "70.3177179213",
                "kilometers": "27042110.088142179",
                "miles": "16803188.0345889102"
            },
            "orbiting_body": "Earth"
        },
        {
            "close_approach_date": "2024-03-01",
            "close_approach_date_full": "2024-Mar-01 06:56",
            "epoch_date_close_approach": 1709276160000,
            "relative_velocity": {
                "kilometers_per_second": "4.7857342404",
                "kilometers_per_hour": "17228.6432654626",
                "miles_per_hour": "10705.2089223648"
            },
            "miss_distance": {
                "astronomical": "0.384475608",
                "lunar": "149.561011512",
                "kilometers": "57516732.02375496",
                "miles": "35739240.028980048"
            },
            "orbiting_body": "Earth"
        },
        {
            "close_approach_date": "2041-04-28",
            "close_approach_date_full": "2041-Apr-28 19:20",
            "epoch_date_close_approach": 2250789600000,
            "relative_velocity": {
                "kilometers_per_second": "5.6216808807",
                "kilometers_per_hour": "20238.0511704285",
                "miles_per_hour": "12575.1379619809"
            },
            "miss_distance": {
                "astronomical": "0.197340138",
                "lunar": "76.765313682",
                "kilometers": "29521664.31030606",
                "miles": "18343911.583941228"
            },
            "orbiting_body": "Earth"
        }
    ],
    "orbital_data": {
        "orbit_id": "8",
        "orbit_determination_date": "2019-05-21 07:53:51",
        "first_observation_date": "2019-04-03",
        "last_observation_date": "2019-05-09",
        "data_arc_in_days": 36,
        "observations_used": 38,
        "orbit_uncertainty": "6",
        "minimum_orbit_intersection": ".180448",
        "jupiter_tisserand_invariant": "4.678",
        "epoch_osculation": "2459000.5",
        "eccentricity": ".1673552349776239",
        "semi_major_axis": "1.419452901323078",
        "inclination": "10.72404984472231",
        "ascending_node_longitude": "22.3057373342513",
        "orbital_period": "617.7032795394616",
        "perihelion_distance": "1.181900027482484",
        "perihelion_argument": "194.9829699354345",
        "aphelion_distance": "1.657005775163671",
        "perihelion_time": "2459219.866885454885",
        "mean_anomaly": "232.1520811373423",
        "mean_motion": ".582804093687836",
        "equinox": "J2000",
        "orbit_class": {
            "orbit_class_type": "AMO",
            "orbit_class_description": "Near-Earth asteroid orbits similar to that of 1221 Amor",
            "orbit_class_range": "1.017 AU < q (perihelion) < 1.3 AU"
        }
    },
    "is_sentry_object": false
}